{"type": "FeatureCollection", "features": [ {"type": "Feature", "properties": {"norad_id": 66911, "name": "1998-067XX", "group": "stations", "lat": -41.431352976490125, "lon": 6.911457326326756, "alt_km": 412.2138977734339, "timestamp": "2025-12-12T16:50:31.930892+00:00", "meta": {"OBJECT_NAME": "1998-067XX", "OBJECT_ID": "1998-067XX", "EPOCH": "2025-12-12T03:27:33.883488", "MEAN_MOTION": 15.51877198, "ECCENTRICITY": 0.00050437, "INCLINATION": 51.6295, "RA_OF_ASC_NODE": 145.3134, "ARG_OF_PERICENTER": 206.7982, "MEAN_ANOMALY": 153.2747, "EPHEMERIS_TYPE": 0, "CLASSIFICATION_TYPE": "U", "NORAD_CAT_ID": 66911, "ELEMENT_SET_NO": 999, "REV_AT_EPOCH": 151, "BSTAR": 0.0015037661, "MEAN_MOTION_DOT": 0.00092403, "MEAN_MOTION_DDOT": 0}, "tle": {"line1": "1 66911U 98067XX  25346.14414217  .00092403  00000+0  15038-2 0  9993", "line2": "2 66911  51.6295 145.3134 0005043 206.7982 153.2747 15.51877198  1518"}}, "geometry": {"type": "Point", "coordinates": [6.911457326326756, -41.431352976490125]}}, {"type": "Feature", "properties": {"norad_id": 66912, "name": "1998-067XY", "group": "stations", "lat": -27.508708064067584, "lon": -13.046746975325242, "alt_km": 413.8249686172503, "timestamp": "2025-12-12T16:50:31.930903+00:00", "meta": {"OBJECT_NAME": "1998-067XY", "OBJECT_ID": "1998-067XY", "EPOCH": "2025-12-11T19:48:45.131904", "MEAN_MOTION": 15.51001955, "ECCENTRICITY": 0.00047052, "INCLINATION": 51.6304, "RA_OF_ASC_NODE": 146.936, "ARG_OF_PERICENTER": 217.5082, "MEAN_ANOMALY": 142.5579, "EPHEMERIS_TYPE": 0, "CLASSIFICATION_TYPE": "U", "NORAD_CAT_ID": 66912, "ELEMENT_SET_NO": 999, "REV_AT_EPOCH": 146, "BSTAR": 0.00099420433, "MEAN_MOTION_DOT": 0.0005879, "MEAN_MOTION_DDOT": 0}, "tle": {"line1": "1 66912U 98067XY  25345.82552236  .00058790  00000+0  99420-3 0  9991", "line2": "2 66912  51.6304 146.9360 0004705 217.5082 142.5579 15.51001955  1461"}}, "geometry": {"type": "Point", "coordinates": [-13.046746975325242, -27.508708064067584]}}]}